[{"OBJECT_NAME":"STARLINK-2015","OBJECT_ID":"2021-012U","EPOCH":"2026-03-09T22:09:23.404320","MEAN_MOTION":15.30181873,"ECCENTRICITY":0.00011937,"INCLINATION":53.1603,"RA_OF_ASC_NODE":331.3215,"ARG_OF_PERICENTER":95.8181,"MEAN_ANOMALY":264.2956,"EPHEMERIS_TYPE":0,"CLASSIFICATION_TYPE":"U","NORAD_CAT_ID":47638,"ELEMENT_SET_NO":999,"REV_AT_EPOCH":28139,"BSTAR":-4.4390938e-5,"MEAN_MOTION_DOT":-1.673e-5,"MEAN_MOTION_DDOT":0},{"OBJECT_NAME":"AETHER-2","OBJECT_ID":"2023-174AV","EPOCH":"2026-03-09T17:13:49.792224","MEAN_MOTION":15.33264165,"ECCENTRICITY":0.00086301,"INCLINATION":97.3931,"RA_OF_ASC_NODE":151.9008,"ARG_OF_PERICENTER":139.5247,"MEAN_ANOMALY":220.6639,"EPHEMERIS_TYPE":0,"CLASSIFICATION_TYPE":"U","NORAD_CAT_ID":58299,"ELEMENT_SET_NO":999,"REV_AT_EPOCH":12998,"BSTAR":0.00026165949,"MEAN_MOTION_DOT":8.341e-5,"MEAN_MOTION_DDOT":0}]
